BEIDOU-2 IGSO-1 (C06)   
1 36828U 10036A   25300.56726622 -.00000083  00000+0  00000+0 0  9993
2 36828  54.2772 165.0677 0050914 216.2223 325.4574  1.00289933 55763
BEIDOU-2 G4 (C04)       
1 37210U 10057A   25300.79023032 -.00000100  00000+0  00000+0 0  9992
2 37210   3.0659  70.0672 0009685 177.7661 233.0100  1.00273783 54967
BEIDOU-2 IGSO-2 (C07)   
1 37256U 10068A   25295.62146750 -.00000196  00000+0  00000+0 0  9997
2 37256  47.9774 274.7760 0047363 217.7614 226.5684  1.00248503 54417
BEIDOU-2 IGSO-3 (C08)   
1 37384U 11013A   25300.78168734 -.00000176  00000+0  00000+0 0  9998
2 37384  62.0824  42.3578 0036543 183.1509 199.8848  1.00282149 53334
BEIDOU-2 IGSO-4 (C09)   
1 37763U 11038A   25295.63865760 -.00000006  00000+0  00000+0 0  9998
2 37763  54.5748 167.8028 0146614 229.5223 315.8266  1.00292059 52264
BEIDOU-2 IGSO-5 (C10)   
1 37948U 11073A   25300.83673220 -.00000139  00000+0  00000+0 0  9996
2 37948  48.1074 274.4223 0109198 222.1550 294.9277  1.00257102 50807
BEIDOU-2 G5 (C05)       
1 38091U 12008A   25300.84158891  .00000069  00000+0  00000+0 0  9999
2 38091   2.9901  70.8463 0009609 221.5668 105.7122  1.00271938 50033
BEIDOU-2 M3 (C11)       
1 38250U 12018A   25299.61188611 -.00000040  00000+0  00000+0 0  9992
2 38250  55.9592 312.7422 0024766 269.9154  89.8304  1.86229931 91594
BEIDOU-2 M4 (C12)       
1 38251U 12018B   25299.00713797 -.00000043  00000+0  00000+0 0  9998
2 38251  55.8618 311.9955 0015903 270.8112  89.0348  1.86232270 91582
BEIDOU-2 M6 (C14)       
1 38775U 12050B   25297.10722026 -.00000026  00000+0  00000+0 0  9990
2 38775  56.3364  70.7135 0010474 353.5933   6.3747  1.86230993 88913
BEIDOU-2 G6 (C02)       
1 38953U 12059A   25300.85605804 -.00000163  00000+0  00000+0 0  9990
2 38953   3.8275  75.9477 0006423 300.3977  52.3934  1.00271002 47570
BEIDOU-3S IGSO-1S (C31) 
1 40549U 15019A   25297.52891953 -.00000131  00000+0  00000+0 0  9999
2 40549  49.6453 298.3029 0040504 197.6198 177.4401  1.00251575 38711
BEIDOU-3S M2S (C58)     
1 40748U 15037A   25300.82289260 -.00000031  00000+0  00000+0 0  9999
2 40748  55.0785 310.0403 0012945 260.8319  99.0486  1.86229316 69791
BEIDOU-3S M1S (C57)     
1 40749U 15037B   25296.76405626 -.00000058  00000+0  00000+0 0  9992
2 40749  55.0785 310.1697 0002999 350.7818   9.2393  1.86254118 69720
BEIDOU-3S IGSO-2S (C56) 
1 40938U 15053A   25294.84292536 -.00000154  00000+0  00000+0 0  9998
2 40938  49.5959 261.6191 0061422 189.7961 338.2620  1.00282517 36963
BEIDOU-2 IGSO-6 (C13)   
1 41434U 16021A   25300.82527918 -.00000144  00000+0  00000+0 0  9996
2 41434  59.9018  40.3617 0058290 229.1414 158.1067  1.00263097 35158
BEIDOU-2 G7 (C03)       
1 41586U 16037A   25300.85181564 -.00000342  00000+0  00000+0 0  9997
2 41586   1.6405  67.1635 0005615 337.8285  48.6852  1.00269252  4568
BEIDOU-3 M1 (C19)       
1 43001U 17069A   25298.48360991 -.00000013  00000+0  00000+0 0  9990
2 43001  56.4857  70.8286 0007393 307.6997  52.2188  1.86231321 54236
BEIDOU-3 M2 (C20)       
1 43002U 17069B   25297.34798666 -.00000024  00000+0  00000+0 0  9991
2 43002  56.4841  70.9017 0005411 346.5889  13.3787  1.86230874 54206
BEIDOU-3 M7 (C27)       
1 43107U 18003A   25299.23956672 -.00000043  00000+0  00000+0 0  9990
2 43107  54.5379 310.4669 0002269  85.7518 274.2998  1.86232598 52992
BEIDOU-3 M8 (C28)       
1 43108U 18003B   25300.25799069 -.00000036  00000+0  00000+0 0  9993
2 43108  54.5300 310.4145 0005018 264.8106  95.1586  1.86231047 53020
BEIDOU-3 M4 (C22)       
1 43207U 18018A   25298.55184628 -.00000013  00000+0  00000+0 0  9992
2 43207  56.4447  70.8984 0004439  34.3940 325.6204  1.86231246 52379
BEIDOU-3 M3 (C21)       
1 43208U 18018B   25300.22927685  .00000002  00000+0  00000+0 0  9996
2 43208  56.4455  70.8472 0005112 326.4069  33.5525  1.86231295 52406
BEIDOU-3 M9 (C29)       
1 43245U 18029A   25297.76052579 -.00000051  00000+0  00000+0 0  9999
2 43245  54.4093 308.1765 0002167 255.1396 104.8582  1.86232976 51516
BEIDOU-3 M10 (C30)      
1 43246U 18029B   25298.23265859 -.00000048  00000+0  00000+0 0  9996
2 43246  54.4063 308.1869 0003258 354.2754   5.7427  1.86229212 51505
BEIDOU-2 IGSO-7 (C16)   
1 43539U 18057A   25300.86761012 -.00000090  00000+0  00000+0 0  9994
2 43539  55.1687 165.0748 0091842 235.5748  60.6857  1.00271281 26795
BEIDOU-3 M5 (C23)       
1 43581U 18062A   25298.99444562  .00000023  00000+0  00000+0 0  9990
2 43581  54.0904 190.2683 0002851 323.4183  36.6475  1.86228833 49278
BEIDOU-3 M6 (C24)       
1 43582U 18062B   25299.93169248  .00000020  00000+0  00000+0 0  9998
2 43582  54.0900 190.2256 0006968  36.5947 323.5367  1.86229920 49292
BEIDOU-3 M12 (C26)      
1 43602U 18067A   25296.64724316  .00000032  00000+0  00000+0 0  9997
2 43602  54.1842 189.0634 0008670  35.0726 325.0702  1.86227770 48715
BEIDOU-3 M11 (C25)      
1 43603U 18067B   25300.00338905  .00000020  00000+0  00000+0 0  9996
2 43603  54.1812 188.9137 0005263  29.2589 330.8556  1.86227209 48804
BEIDOU-3 M13 (C32)      
1 43622U 18072A   25298.88636387 -.00000011  00000+0  00000+0 0  9991
2 43622  56.4177  70.4043 0004261 306.1158  53.8319  1.86231084 48299
BEIDOU-3 M14 (C33)      
1 43623U 18072B   25300.36270472  .00000002  00000+0  00000+0 0  9997
2 43623  56.4215  70.3494 0002580   4.1115 355.8829  1.86231065 48315
BEIDOU-3 M16 (C35)      
1 43647U 18078A   25300.52119529 -.00000032  00000+0  00000+0 0  9996
2 43647  54.3034 308.1372 0006243  17.5208 342.5245  1.86232382 47828
BEIDOU-3 M15 (C34)      
1 43648U 18078B   25299.03953964 -.00000042  00000+0  00000+0 0  9990
2 43648  54.3003 308.1901 0002793  16.5386 343.4926  1.86232355 47810
BEIDOU-3 G1 (C59)       
1 43683U 18085A   25299.78729147 -.00000265  00000+0  00000+0 0  9990
2 43683   2.9854 103.9088 0002875  12.5925 342.3179  1.00266921 25710
BEIDOU-3 M17 (C36)      
1 43706U 18093A   25298.93864250  .00000023  00000+0  00000+0 0  9997
2 43706  54.1739 190.2452 0007453 301.5474 245.0422  1.86228418 47175
BEIDOU-3 M18 (C37)      
1 43707U 18093B   25299.05856935  .00000023  00000+0  00000+0 0  9993
2 43707  54.1745 190.2328 0006881 339.3760  20.6815  1.86230098 47176
BEIDOU-3 IGSO-1 (C38)   
1 44204U 19023A   25300.79024950 -.00000208  00000+0  00000+0 0  9994
2 44204  58.3693  40.0546 0026507 218.6991 179.2667  1.00258625  4882
BEIDOU-2 G8 (C01)       
1 44231U 19027A   25300.85857567 -.00000235  00000+0  00000+0 0  9993
2 44231   1.5409  74.5260 0006934 259.3741 156.1225  1.00276411 23753
BEIDOU-3 IGSO-2 (C39)   
1 44337U 19035A   25300.87084275 -.00000091  00000+0  00000+0 0  9999
2 44337  55.2161 160.9065 0037302 202.3279 105.5016  1.00285791 23332
BEIDOU-3 M24 (C46)      
1 44542U 19061A   25298.05619706  .00000027  00000+0  00000+0 0  9993
2 44542  54.4013 190.6596 0009221  15.2716 344.8415  1.86229469 41416
BEIDOU-3 M23 (C45)      
1 44543U 19061B   25298.45739420  .00000025  00000+0  00000+0 0  9992
2 44543  54.3990 190.6145 0006558  25.9781 155.9110  1.86229590 41429
BEIDOU-3 IGSO-3 (C40)   
1 44709U 19073A   25300.36078374 -.00000167  00000+0  00000+0 0  9995
2 44709  55.2042 283.4153 0045069 191.9481 167.9049  1.00257619 22121
BEIDOU-3 M22 (C44)      
1 44793U 19078A   25298.97069858 -.00000043  00000+0  00000+0 0  9996
2 44793  54.1511 308.0624 0004873  22.6667 337.3765  1.86232203 40285
BEIDOU-3 M21 (C43)      
1 44794U 19078B   25299.10727420 -.00000042  00000+0  00000+0 0  9998
2 44794  54.1244 308.0235 0003087   7.4621 352.5642  1.86227870 40292
BEIDOU-3 M19 (C41)      
1 44864U 19090A   25299.08371039 -.00000009  00000+0  00000+0 0  9991
2 44864  56.3524  70.5420 0016174 284.5981 254.9559  1.86231609 39879
BEIDOU-3 M20 (C42)      
1 44865U 19090B   25300.82032898  .00000005  00000+0  00000+0 0  9999
2 44865  56.3550  70.5188 0013398 298.6992  54.7861  1.86231526 39884
BEIDOU-3 G2 (C60)       
1 45344U 20017A   25300.85596618 -.00000129  00000+0  00000+0 0  9999
2 45344   2.9124  42.8749 0002782 260.4234 121.3633  1.00271374 20932
BEIDOU-3 G3 (C61)       
1 45807U 20040A   25300.28090398 -.00000342  00000+0  00000+0 0  9997
2 45807   1.8743  66.0863 0004553 315.5042 225.9742  1.00275977 19734
BEIDOU-3 G4 (C62)       
1 56564U 23066A   25300.79023032 -.00000101  00000+0  00000+0 0  9990
2 56564   0.9212 298.5401 0004685 220.4389 321.9076  1.00273312  9064
BEIDOU-3 M28 (C50)      
1 58654U 23207A   25300.79667546  .00000003  00000+0  00000+0 0  9993
2 58654  55.5448  70.1565 0000679 233.1253 126.8625  1.86229819 12511
BEIDOU-3 M26 (C48)      
1 58655U 23207B   25298.98382988 -.00000012  00000+0  00000+0 0  9996
2 58655  55.5452  70.2039 0002211 231.9549 128.0129  1.86231417 12466
BEIDOU-3 M25 (C47)      
1 61186U 24168B   25297.47397979 -.00000055  00000+0  00000+0 0  9992
2 61186  54.6849 310.4279 0005446 285.7261 259.0373  1.86230362  7395
BEIDOU-3 M27 (C49)      
1 61187U 24168C   25300.75981016 -.00000032  00000+0  00000+0 0  9995
2 61187  54.6779 310.2981 0001910 312.5352  50.1242  1.86230368  4936
